ORBCOMM FM115           
1 41186U 15081H   24135.67196031  .00001983  00000+0  43819-3 0  9991
2 41186  46.9967 132.3234 0000931 330.5621  29.5213 14.60688687449478
ORBCOMM FM108           
1 41187U 15081J   24136.41628747  .00001999  00000+0  48132-3 0  9999
2 41187  47.0024 183.2505 0003671 280.3392  79.7079 14.56612340448858
ORBCOMM FM117           
1 41188U 15081K   24135.83340369  .00001695  00000+0  41416-3 0  9997
2 41188  46.9989 184.8890 0004076 288.7019  71.3423 14.56584200448730
ORBCOMM FM116           
1 41189U 15081L   24136.37135510  .00003193  00000+0  74620-3 0  9996
2 41189  47.0006 272.1733 0001429   7.8779 352.2128 14.56619709447692
